EUTELSAT QUANTUM        
1 49056U 21069B   25229.91433667  .00000116  00000+0  00000+0 0  9997
2 49056   0.0403 283.8350 0002107 248.9544 170.5961  1.00273648 14889
EUTELSAT KONNECT VHTS   
1 53765U 22110A   25229.60789738  .00000008  00000+0  00000+0 0  9996
2 53765   0.0593 102.0351 0002477  43.6783  42.0313  1.00270025  3786
EUTELSAT HOTBIRD 13F    
1 54048U 22134A   25229.82409762  .00000078  00000+0  00000+0 0  9994
2 54048   0.0556 288.8920 0001826  64.6394 282.5889  1.00273076 10330
EUTELSAT HOTBIRD 13G    
1 54225U 22146A   25229.53856375  .00000079  00000+0  00000+0 0  9999
2 54225   0.0523 241.9970 0002232 305.7857 345.2578  1.00272545  4426
EUTELSAT 10B            
1 54259U 22157A   25229.53795707  .00000059  00000+0  00000+0 0  9997
2 54259   0.0541  98.8809 0001306 358.3448  72.5480  1.00269580 10002
EUTELSAT 36D            
1 59346U 24059A   25229.47158895  .00000147  00000+0  00000+0 0  9994
2 59346   0.0151 110.3646 0000307 100.6708 320.6766  1.00271128  5107
